{"fetched_at":"2026-07-24T07:06:06.293Z","source":"https://celestrak.org/NORAD/elements/gp.php?GROUP=kuiper&FORMAT=JSON","constellation":"kuiper","records":[{"OBJECT_NAME":"KUIPER-00140","OBJECT_ID":"2025-228U","EPOCH":"2026-07-23T18:00:31.656096","CLASSIFICATION_TYPE":"U","MEAN_MOTION":14.79947272,"ECCENTRICITY":0.0000882,"INCLINATION":51.8987,"RA_OF_ASC_NODE":104.001,"ARG_OF_PERICENTER":103.2827,"MEAN_ANOMALY":256.8233,"EPHEMERIS_TYPE":0,"NORAD_CAT_ID":65965,"ELEMENT_SET_NO":999,"REV_AT_EPOCH":4358,"BSTAR":0.000046881,"MEAN_MOTION_DOT":0.00000136,"MEAN_MOTION_DDOT":0},{"OBJECT_NAME":"KUIPER-00141","OBJECT_ID":"2025-228V","EPOCH":"2026-07-23T10:02:05.091072","CLASSIFICATION_TYPE":"U","MEAN_MOTION":14.79939071,"ECCENTRICITY":0.0000998,"INCLINATION":51.9064,"RA_OF_ASC_NODE":100.528,"ARG_OF_PERICENTER":97.5483,"MEAN_ANOMALY":262.5592,"EPHEMERIS_TYPE":0,"NORAD_CAT_ID":65966,"ELEMENT_SET_NO":999,"REV_AT_EPOCH":4360,"BSTAR":-0.00016012,"MEAN_MOTION_DOT":-0.00001442,"MEAN_MOTION_DDOT":0},{"OBJECT_NAME":"KUIPER-00146","OBJECT_ID":"2025-228W","EPOCH":"2026-07-23T17:15:49.012128","CLASSIFICATION_TYPE":"U","MEAN_MOTION":14.79956332,"ECCENTRICITY":0.0001071,"INCLINATION":51.9027,"RA_OF_ASC_NODE":101.7089,"ARG_OF_PERICENTER":99.5919,"MEAN_ANOMALY":260.5164,"EPHEMERIS_TYPE":0,"NORAD_CAT_ID":65967,"ELEMENT_SET_NO":999,"REV_AT_EPOCH":4361,"BSTAR":0.00052608,"MEAN_MOTION_DOT":0.00003794,"MEAN_MOTION_DDOT":0},{"OBJECT_NAME":"KUIPER-00149","OBJECT_ID":"2025-228X","EPOCH":"2026-07-23T10:05:56.225760","CLASSIFICATION_TYPE":"U","MEAN_MOTION":14.79949628,"ECCENTRICITY":0.0000866,"INCLINATION":51.9033,"RA_OF_ASC_NODE":97.9112,"ARG_OF_PERICENTER":105.4866,"MEAN_ANOMALY":254.6192,"EPHEMERIS_TYPE":0,"NORAD_CAT_ID":65968,"ELEMENT_SET_NO":999,"REV_AT_EPOCH":4364,"BSTAR":-0.0011362,"MEAN_MOTION_DOT":-0.00008875,"MEAN_MOTION_DDOT":0},{"OBJECT_NAME":"KUIPER-00154","OBJECT_ID":"2025-228Y","EPOCH":"2026-07-23T09:21:12.506112","CLASSIFICATION_TYPE":"U","MEAN_MOTION":14.79947716,"ECCENTRICITY":0.0001699,"INCLINATION":51.8971,"RA_OF_ASC_NODE":95.5375,"ARG_OF_PERICENTER":81.5337,"MEAN_ANOMALY":278.5817,"EPHEMERIS_TYPE":0,"NORAD_CAT_ID":65969,"ELEMENT_SET_NO":999,"REV_AT_EPOCH":4367,"BSTAR":-0.00010641,"MEAN_MOTION_DOT":-0.00001033,"MEAN_MOTION_DDOT":0},{"OBJECT_NAME":"KUIPER-00157","OBJECT_ID":"2025-228Z","EPOCH":"2026-07-23T20:15:08.411904","CLASSIFICATION_TYPE":"U","MEAN_MOTION":14.81210151,"ECCENTRICITY":0.0001446,"INCLINATION":51.9017,"RA_OF_ASC_NODE":96.0078,"ARG_OF_PERICENTER":71.4426,"MEAN_ANOMALY":288.6694,"EPHEMERIS_TYPE":0,"NORAD_CAT_ID":65970,"ELEMENT_SET_NO":999,"REV_AT_EPOCH":4370,"BSTAR":0.00028768,"MEAN_MOTION_DOT":0.00002038,"MEAN_MOTION_DDOT":0},{"OBJECT_NAME":"KUIPER-00144","OBJECT_ID":"2025-301A","EPOCH":"2026-07-23T07:17:00.824064","CLASSIFICATION_TYPE":"U","MEAN_MOTION":14.79941675,"ECCENTRICITY":0.0000591,"INCLINATION":51.9002,"RA_OF_ASC_NODE":175.9348,"ARG_OF_PERICENTER":59.3794,"MEAN_ANOMALY":300.7226,"EPHEMERIS_TYPE":0,"NORAD_CAT_ID":67133,"ELEMENT_SET_NO":999,"REV_AT_EPOCH":3395,"BSTAR":0.00038491,"MEAN_MOTION_DOT":0.00002715,"MEAN_MOTION_DDOT":0},{"OBJECT_NAME":"KUIPER-00164","OBJECT_ID":"2025-301B","EPOCH":"2026-07-23T20:00:01.999008","CLASSIFICATION_TYPE":"U","MEAN_MOTION":14.79962167,"ECCENTRICITY":0.000097,"INCLINATION":51.9013,"RA_OF_ASC_NODE":186.0987,"ARG_OF_PERICENTER":104.6106,"MEAN_ANOMALY":272.4873,"EPHEMERIS_TYPE":0,"NORAD_CAT_ID":67134,"ELEMENT_SET_NO":999,"REV_AT_EPOCH":526,"BSTAR":0.0055611,"MEAN_MOTION_DOT":0.00042471,"MEAN_MOTION_DDOT":0},{"OBJECT_NAME":"KUIPER-00175","OBJECT_ID":"2025-301C","EPOCH":"2026-07-23T06:36:05.502816","CLASSIFICATION_TYPE":"U","MEAN_MOTION":14.79933665,"ECCENTRICITY":0.0000769,"INCLINATION":51.8976,"RA_OF_ASC_NODE":171.0191,"ARG_OF_PERICENTER":92.8391,"MEAN_ANOMALY":267.2659,"EPHEMERIS_TYPE":0,"NORAD_CAT_ID":67135,"ELEMENT_SET_NO":999,"REV_AT_EPOCH":3409,"BSTAR":0.00039984,"MEAN_MOTION_DOT":0.00002828,"MEAN_MOTION_DDOT":0},{"OBJECT_NAME":"KUIPER-00179","OBJECT_ID":"2025-301D","EPOCH":"2026-07-23T08:38:39.431040","CLASSIFICATION_TYPE":"U","MEAN_MOTION":14.79953301,"ECCENTRICITY":0.0000504,"INCLINATION":51.8973,"RA_OF_ASC_NODE":185.6515,"ARG_OF_PERICENTER":61.2902,"MEAN_ANOMALY":298.8111,"EPHEMERIS_TYPE":0,"NORAD_CAT_ID":67136,"ELEMENT_SET_NO":999,"REV_AT_EPOCH":3400,"BSTAR":0.00033615,"MEAN_MOTION_DOT":0.00002344,"MEAN_MOTION_DDOT":0},{"OBJECT_NAME":"KUIPER-00181","OBJECT_ID":"2025-301E","EPOCH":"2026-07-23T06:42:02.780640","CLASSIFICATION_TYPE":"U","MEAN_MOTION":14.79939279,"ECCENTRICITY":0.0001024,"INCLINATION":51.9005,"RA_OF_ASC_NODE":198.5514,"ARG_OF_PERICENTER":69.2868,"MEAN_ANOMALY":290.8204,"EPHEMERIS_TYPE":0,"NORAD_CAT_ID":67137,"ELEMENT_SET_NO":999,"REV_AT_EPOCH":3379,"BSTAR":0.00029051,"MEAN_MOTION_DOT":0.00001994,"MEAN_MOTION_DDOT":0},{"OBJECT_NAME":"KUIPER-00183","OBJECT_ID":"2025-301F","EPOCH":"2026-07-23T21:22:19.373664","CLASSIFICATION_TYPE":"U","MEAN_MOTION":14.92791691,"ECCENTRICITY":0.0009431,"INCLINATION":51.8929,"RA_OF_ASC_NODE":167.3261,"ARG_OF_PERICENTER":150.6468,"MEAN_ANOMALY":209.5031,"EPHEMERIS_TYPE":0,"NORAD_CAT_ID":67138,"ELEMENT_SET_NO":999,"REV_AT_EPOCH":3429,"BSTAR":0.00040627,"MEAN_MOTION_DOT":0.00003999,"MEAN_MOTION_DDOT":0},{"OBJECT_NAME":"KUIPER-00184","OBJECT_ID":"2025-301G","EPOCH":"2026-07-23T07:57:47.479392","CLASSIFICATION_TYPE":"U","MEAN_MOTION":14.79927289,"ECCENTRICITY":0.0000436,"INCLINATION":51.8995,"RA_OF_ASC_NODE":180.7813,"ARG_OF_PERICENTER":66.1467,"MEAN_ANOMALY":293.9541,"EPHEMERIS_TYPE":0,"NORAD_CAT_ID":67139,"ELEMENT_SET_NO":999,"REV_AT_EPOCH":3416,"BSTAR":-0.00036159,"MEAN_MOTION_DOT":-0.00002976,"MEAN_MOTION_DDOT":0},{"OBJECT_NAME":"KUIPER-00186","OBJECT_ID":"2025-301H","EPOCH":"2026-07-23T04:16:12.141984","CLASSIFICATION_TYPE":"U","MEAN_MOTION":14.79939782,"ECCENTRICITY":0.0000509,"INCLINATION":51.9008,"RA_OF_ASC_NODE":199.0095,"ARG_OF_PERICENTER":52.7996,"MEAN_ANOMALY":307.3013,"EPHEMERIS_TYPE":0,"NORAD_CAT_ID":67140,"ELEMENT_SET_NO":999,"REV_AT_EPOCH":3362,"BSTAR":0.00030346,"MEAN_MOTION_DOT":0.00002093,"MEAN_MOTION_DDOT":0},{"OBJECT_NAME":"KUIPER-00187","OBJECT_ID":"2025-301J","EPOCH":"2026-07-23T09:04:00.870240","CLASSIFICATION_TYPE":"U","MEAN_MOTION":14.79950129,"ECCENTRICITY":0.0000497,"INCLINATION":51.9019,"RA_OF_ASC_NODE":200.6493,"ARG_OF_PERICENTER":52.0782,"MEAN_ANOMALY":308.0225,"EPHEMERIS_TYPE":0,"NORAD_CAT_ID":67141,"ELEMENT_SET_NO":999,"REV_AT_EPOCH":3361,"BSTAR":0.0002759,"MEAN_MOTION_DOT":0.00001884,"MEAN_MOTION_DDOT":0},{"OBJECT_NAME":"KUIPER-00188","OBJECT_ID":"2025-301K","EPOCH":"2026-07-23T13:57:39.065760","CLASSIFICATION_TYPE":"U","MEAN_MOTION":14.79947667,"ECCENTRICITY":0.0000688,"INCLINATION":51.9017,"RA_OF_ASC_NODE":167.3348,"ARG_OF_PERICENTER":60.6433,"MEAN_ANOMALY":299.4598,"EPHEMERIS_TYPE":0,"NORAD_CAT_ID":67142,"ELEMENT_SET_NO":999,"REV_AT_EPOCH":3409,"BSTAR":0.0004136,"MEAN_MOTION_DOT":0.00002934,"MEAN_MOTION_DDOT":0}]}
