KUIPER-00140            
1 65965U 25228U   26204.75036639  .00000136  00000+0  46881-4 0  9993
2 65965  51.8987 104.0010 0000882 103.2827 256.8233 14.79947272 43589
KUIPER-00141            
1 65966U 25228V   26204.41811448 -.00001442  00000+0 -16012-3 0  9991
2 65966  51.9064 100.5280 0000998  97.5483 262.5592 14.79939071 43601
KUIPER-00146            
1 65967U 25228W   26204.71931727  .00003794  00000+0  52608-3 0  9999
2 65967  51.9027 101.7089 0001071  99.5919 260.5164 14.79956332 43613
KUIPER-00149            
1 65968U 25228X   26204.42078965 -.00008875  00000+0 -11362-2 0  9992
2 65968  51.9033  97.9112 0000866 105.4866 254.6192 14.79949628 43641
KUIPER-00154            
1 65969U 25228Y   26204.38972808 -.00001033  00000+0 -10641-3 0  9996
2 65969  51.8971  95.5375 0001699  81.5337 278.5817 14.79947716 43677
KUIPER-00157            
1 65970U 25228Z   26204.84384736  .00002038  00000+0  28768-3 0  9999
2 65970  51.9017  96.0078 0001446  71.4426 288.6694 14.81210151 43702
KUIPER-00144            
1 67133U 25301A   26204.30348176  .00002715  00000+0  38491-3 0  9999
2 67133  51.9002 175.9348 0000591  59.3794 300.7226 14.79941675 33951
KUIPER-00164            
1 67134U 25301B   26204.83335647  .00042471  00000+0  55611-2 0  9992
2 67134  51.9013 186.0987 0000970 104.6106 272.4873 14.79962167  5263
KUIPER-00175            
1 67135U 25301C   26204.27506369  .00002828  00000+0  39984-3 0  9990
2 67135  51.8976 171.0191 0000769  92.8391 267.2659 14.79933665 34090
KUIPER-00179            
1 67136U 25301D   26204.36017860  .00002344  00000+0  33615-3 0  9992
2 67136  51.8973 185.6515 0000504  61.2902 298.8111 14.79953301 34007
KUIPER-00181            
1 67137U 25301E   26204.27919885  .00001994  00000+0  29051-3 0  9990
2 67137  51.9005 198.5514 0001024  69.2868 290.8204 14.79939279 33792
KUIPER-00183            
1 67138U 25301F   26204.89050201  .00003999  00000+0  40627-3 0  9996
2 67138  51.8929 167.3261 0009431 150.6468 209.5031 14.92791691 34291
KUIPER-00184            
1 67139U 25301G   26204.33179953 -.00002976  00000+0 -36159-3 0  9993
2 67139  51.8995 180.7813 0000436  66.1467 293.9541 14.79927289 34161
KUIPER-00186            
1 67140U 25301H   26204.17791831  .00002093  00000+0  30346-3 0  9992
2 67140  51.9008 199.0095 0000509  52.7996 307.3013 14.79939782 33628
KUIPER-00187            
1 67141U 25301J   26204.37778785  .00001884  00000+0  27590-3 0  9992
2 67141  51.9019 200.6493 0000497  52.0782 308.0225 14.79950129 33614
KUIPER-00188            
1 67142U 25301K   26204.58170215  .00002934  00000+0  41360-3 0  9998
2 67142  51.9017 167.3348 0000688  60.6433 299.4598 14.79947667 34093
